[{"OBJECT_NAME":"WORLDVIEW-2 (WV-2)","OBJECT_ID":"2009-055A","EPOCH":"2026-03-15T05:22:41.677536","MEAN_MOTION":14.37912993,"ECCENTRICITY":0.00052804,"INCLINATION":98.4684,"RA_OF_ASC_NODE":149.0106,"ARG_OF_PERICENTER":131.7369,"MEAN_ANOMALY":228.4271,"EPHEMERIS_TYPE":0,"CLASSIFICATION_TYPE":"U","NORAD_CAT_ID":35946,"ELEMENT_SET_NO":999,"REV_AT_EPOCH":86214,"BSTAR":6.3303986e-5,"MEAN_MOTION_DOT":1.48e-6,"MEAN_MOTION_DDOT":0},{"OBJECT_NAME":"SMOS","OBJECT_ID":"2009-059A","EPOCH":"2026-03-15T05:32:21.667776","MEAN_MOTION":14.39764813,"ECCENTRICITY":9.49e-5,"INCLINATION":98.4431,"RA_OF_ASC_NODE":262.929,"ARG_OF_PERICENTER":85.6678,"MEAN_ANOMALY":274.4619,"EPHEMERIS_TYPE":0,"CLASSIFICATION_TYPE":"U","NORAD_CAT_ID":36036,"ELEMENT_SET_NO":999,"REV_AT_EPOCH":85993,"BSTAR":0.00011517832,"MEAN_MOTION_DOT":3.17e-6,"MEAN_MOTION_DDOT":0},{"OBJECT_NAME":"YAOGAN-7","OBJECT_ID":"2009-069A","EPOCH":"2026-03-15T06:05:44.279808","MEAN_MOTION":14.7790261,"ECCENTRICITY":0.00243297,"INCLINATION":98.0201,"RA_OF_ASC_NODE":320.6408,"ARG_OF_PERICENTER":345.4999,"MEAN_ANOMALY":14.5511,"EPHEMERIS_TYPE":0,"CLASSIFICATION_TYPE":"U","NORAD_CAT_ID":36110,"ELEMENT_SET_NO":999,"REV_AT_EPOCH":87575,"BSTAR":0.00010554332,"MEAN_MOTION_DOT":7.1e-6,"MEAN_MOTION_DDOT":0},{"OBJECT_NAME":"TANDEM-X","OBJECT_ID":"2010-030A","EPOCH":"2026-03-14T12:56:09.777120","MEAN_MOTION":15.19147509,"ECCENTRICITY":0.00019313,"INCLINATION":97.4474,"RA_OF_ASC_NODE":82.5932,"ARG_OF_PERICENTER":100.0574,"MEAN_ANOMALY":260.0879,"EPHEMERIS_TYPE":0,"CLASSIFICATION_TYPE":"U","NORAD_CAT_ID":36605,"ELEMENT_SET_NO":999,"REV_AT_EPOCH":87227,"BSTAR":6.1650812e-5,"MEAN_MOTION_DOT":1.228e-5,"MEAN_MOTION_DDOT":0},{"OBJECT_NAME":"CARTOSAT-2B","OBJECT_ID":"2010-035A","EPOCH":"2026-03-13T10:48:36.808992","MEAN_MOTION":14.786617,"ECCENTRICITY":0.00121418,"INCLINATION":97.9147,"RA_OF_ASC_NODE":123.6633,"ARG_OF_PERICENTER":136.3975,"MEAN_ANOMALY":223.8198,"EPHEMERIS_TYPE":0,"CLASSIFICATION_TYPE":"U","NORAD_CAT_ID":36795,"ELEMENT_SET_NO":999,"REV_AT_EPOCH":84570,"BSTAR":0.00019486608,"MEAN_MOTION_DOT":1.378e-5,"MEAN_MOTION_DDOT":0},{"OBJECT_NAME":"YAOGAN-10","OBJECT_ID":"2010-038A","EPOCH":"2026-03-15T07:29:31.729920","MEAN_MOTION":14.85042577,"ECCENTRICITY":0.00016849,"INCLINATION":97.9079,"RA_OF_ASC_NODE":98.4445,"ARG_OF_PERICENTER":88.9223,"MEAN_ANOMALY":39.5601,"EPHEMERIS_TYPE":0,"CLASSIFICATION_TYPE":"U","NORAD_CAT_ID":36834,"ELEMENT_SET_NO":999,"REV_AT_EPOCH":84327,"BSTAR":0.00042544793,"MEAN_MOTION_DOT":3.579e-5,"MEAN_MOTION_DDOT":0},{"OBJECT_NAME":"COSMO-SKYMED 4","OBJECT_ID":"2010-060A","EPOCH":"2026-03-15T06:23:49.852608","MEAN_MOTION":14.82146777,"ECCENTRICITY":0.00015149,"INCLINATION":97.8871,"RA_OF_ASC_NODE":259.2219,"ARG_OF_PERICENTER":87.3126,"MEAN_ANOMALY":272.8261,"EPHEMERIS_TYPE":0,"CLASSIFICATION_TYPE":"U","NORAD_CAT_ID":37216,"ELEMENT_SET_NO":999,"REV_AT_EPOCH":83065,"BSTAR":9.9863406e-5,"MEAN_MOTION_DOT":7.43e-6,"MEAN_MOTION_DDOT":0},{"OBJECT_NAME":"RESOURCESAT-2","OBJECT_ID":"2011-015A","EPOCH":"2026-03-15T06:32:50.688096","MEAN_MOTION":14.21508155,"ECCENTRICITY":0.00064672,"INCLINATION":98.7709,"RA_OF_ASC_NODE":142.3248,"ARG_OF_PERICENTER":124.9678,"MEAN_ANOMALY":235.2107,"EPHEMERIS_TYPE":0,"CLASSIFICATION_TYPE":"U","NORAD_CAT_ID":37387,"ELEMENT_SET_NO":999,"REV_AT_EPOCH":77283,"BSTAR":-9.5900554e-5,"MEAN_MOTION_DOT":-2.54e-6,"MEAN_MOTION_DDOT":0},{"OBJECT_NAME":"HAIYANG-2A","OBJECT_ID":"2011-043A","EPOCH":"2026-03-15T07:19:19.246368","MEAN_MOTION":13.78024284,"ECCENTRICITY":0.00021287,"INCLINATION":99.342,"RA_OF_ASC_NODE":78.8184,"ARG_OF_PERICENTER":252.4633,"MEAN_ANOMALY":107.6285,"EPHEMERIS_TYPE":0,"CLASSIFICATION_TYPE":"U","NORAD_CAT_ID":37781,"ELEMENT_SET_NO":999,"REV_AT_EPOCH":73374,"BSTAR":0.00024479545,"MEAN_MOTION_DOT":2.02e-6,"MEAN_MOTION_DDOT":0},{"OBJECT_NAME":"RASAT","OBJECT_ID":"2011-044D","EPOCH":"2026-03-15T06:19:56.441280","MEAN_MOTION":14.68066262,"ECCENTRICITY":0.00216679,"INCLINATION":98.0551,"RA_OF_ASC_NODE":167.1164,"ARG_OF_PERICENTER":128.021,"MEAN_ANOMALY":316.1602,"EPHEMERIS_TYPE":0,"CLASSIFICATION_TYPE":"U","NORAD_CAT_ID":37791,"ELEMENT_SET_NO":999,"REV_AT_EPOCH":77940,"BSTAR":0.00013805005,"MEAN_MOTION_DOT":7.46e-6,"MEAN_MOTION_DDOT":0},{"OBJECT_NAME":"SRMSAT","OBJECT_ID":"2011-058D","EPOCH":"2026-03-15T05:18:26.750016","MEAN_MOTION":14.11549976,"ECCENTRICITY":0.00117181,"INCLINATION":19.9715,"RA_OF_ASC_NODE":268.2252,"ARG_OF_PERICENTER":250.188,"MEAN_ANOMALY":266.5988,"EPHEMERIS_TYPE":0,"CLASSIFICATION_TYPE":"U","NORAD_CAT_ID":37841,"ELEMENT_SET_NO":999,"REV_AT_EPOCH":74452,"BSTAR":9.9436778e-5,"MEAN_MOTION_DOT":4.48e-6,"MEAN_MOTION_DDOT":0},{"OBJECT_NAME":"PLEIADES 1A","OBJECT_ID":"2011-076F","EPOCH":"2026-03-15T08:22:50.282976","MEAN_MOTION":14.5854535,"ECCENTRICITY":0.00016904,"INCLINATION":98.2036,"RA_OF_ASC_NODE":150.6909,"ARG_OF_PERICENTER":85.3667,"MEAN_ANOMALY":347.6339,"EPHEMERIS_TYPE":0,"CLASSIFICATION_TYPE":"U","NORAD_CAT_ID":38012,"ELEMENT_SET_NO":999,"REV_AT_EPOCH":75831,"BSTAR":9.9238472e-5,"MEAN_MOTION_DOT":4.15e-6,"MEAN_MOTION_DDOT":0},{"OBJECT_NAME":"ZIYUAN 1-02C (ZY 1-02C)","OBJECT_ID":"2011-079A","EPOCH":"2026-03-15T07:06:32.872320","MEAN_MOTION":14.38129729,"ECCENTRICITY":0.0005599,"INCLINATION":98.4164,"RA_OF_ASC_NODE":143.5385,"ARG_OF_PERICENTER":220.3448,"MEAN_ANOMALY":226.3915,"EPHEMERIS_TYPE":0,"CLASSIFICATION_TYPE":"U","NORAD_CAT_ID":38038,"ELEMENT_SET_NO":999,"REV_AT_EPOCH":74571,"BSTAR":0.00015815454,"MEAN_MOTION_DOT":4.37e-6,"MEAN_MOTION_DDOT":0},{"OBJECT_NAME":"ARIRANG-3 (KOMPSAT-3)","OBJECT_ID":"2012-025B","EPOCH":"2026-03-15T06:43:10.367040","MEAN_MOTION":14.6211099,"ECCENTRICITY":0.00065628,"INCLINATION":98.1072,"RA_OF_ASC_NODE":33.4208,"ARG_OF_PERICENTER":56.7444,"MEAN_ANOMALY":303.4386,"EPHEMERIS_TYPE":0,"CLASSIFICATION_TYPE":"U","NORAD_CAT_ID":38338,"ELEMENT_SET_NO":999,"REV_AT_EPOCH":73762,"BSTAR":0.00013304779,"MEAN_MOTION_DOT":6.22e-6,"MEAN_MOTION_DDOT":0},{"OBJECT_NAME":"EXACTVIEW-1 (ADS-1B)","OBJECT_ID":"2012-039C","EPOCH":"2026-03-15T06:59:31.314624","MEAN_MOTION":14.24953602,"ECCENTRICITY":0.00118912,"INCLINATION":98.9641,"RA_OF_ASC_NODE":189.6252,"ARG_OF_PERICENTER":83.6298,"MEAN_ANOMALY":276.6235,"EPHEMERIS_TYPE":0,"CLASSIFICATION_TYPE":"U","NORAD_CAT_ID":38709,"ELEMENT_SET_NO":999,"REV_AT_EPOCH":70933,"BSTAR":8.0766331e-5,"MEAN_MOTION_DOT":1.43e-6,"MEAN_MOTION_DDOT":0},{"OBJECT_NAME":"SPOT 6","OBJECT_ID":"2012-047A","EPOCH":"2026-03-15T06:45:43.096320","MEAN_MOTION":14.58546231,"ECCENTRICITY":0.00015341,"INCLINATION":98.2212,"RA_OF_ASC_NODE":142.654,"ARG_OF_PERICENTER":92.4121,"MEAN_ANOMALY":267.7254,"EPHEMERIS_TYPE":0,"CLASSIFICATION_TYPE":"U","NORAD_CAT_ID":38755,"ELEMENT_SET_NO":999,"REV_AT_EPOCH":71936,"BSTAR":5.3102201e-5,"MEAN_MOTION_DOT":2.01e-6,"MEAN_MOTION_DDOT":0}]
