WORLDVIEW-2 (WV-2)      
1 35946U 09055A   26074.22409349  .00000148  00000+0  63304-4 0  9990
2 35946  98.4684 149.0106 0005280 131.7369 228.4271 14.37912993862149
SMOS                    
1 36036U 09059A   26074.23080634  .00000317  00000+0  11518-3 0  9995
2 36036  98.4431 262.9290 0000949  85.6678 274.4619 14.39764813859934
YAOGAN-7                
1 36110U 09069A   26074.25398472  .00000710  00000+0  10554-3 0  9999
2 36110  98.0201 320.6408 0024329 345.4999  14.5511 14.77902610875755
TANDEM-X                
1 36605U 10030A   26073.53900205  .00001228  00000+0  61651-4 0  9991
2 36605  97.4474  82.5932 0001931 100.0574 260.0879 15.19147509872277
CARTOSAT-2B             
1 36795U 10035A   26072.45042603  .00001378  00000+0  19487-3 0  9990
2 36795  97.9147 123.6633 0012141 136.3975 223.8198 14.78661700845703
YAOGAN-10               
1 36834U 10038A   26074.31217280  .00003579  00000+0  42545-3 0  9995
2 36834  97.9079  98.4445 0001684  88.9223  39.5601 14.85042577843273
COSMO-SKYMED 4          
1 37216U 10060A   26074.26654922  .00000743  00000+0  99863-4 0  9993
2 37216  97.8871 259.2219 0001514  87.3126 272.8261 14.82146777830656
RESOURCESAT-2           
1 37387U 11015A   26074.27280889 -.00000254  00000+0 -95901-4 0  9999
2 37387  98.7709 142.3248 0006467 124.9678 235.2107 14.21508155772833
HAIYANG-2A              
1 37781U 11043A   26074.30508387  .00000202  00000+0  24480-3 0  9992
2 37781  99.3420  78.8184 0002128 252.4633 107.6285 13.78024284733741
RASAT                   
1 37791U 11044D   26074.26384770  .00000746  00000+0  13805-3 0  9999
2 37791  98.0551 167.1164 0021667 128.0210 316.1602 14.68066262779406
SRMSAT                  
1 37841U 11058D   26074.22114294  .00000448  00000+0  99437-4 0  9993
2 37841  19.9715 268.2252 0011718 250.1880 266.5988 14.11549976744529
PLEIADES 1A             
1 38012U 11076F   26074.34919309  .00000415  00000+0  99238-4 0  9990
2 38012  98.2036 150.6909 0001690  85.3667 347.6339 14.58545350758314
ZIYUAN 1-02C (ZY 1-02C) 
1 38038U 11079A   26074.29621380  .00000437  00000+0  15815-3 0  9996
2 38038  98.4164 143.5385 0005599 220.3448 226.3915 14.38129729745714
ARIRANG-3 (KOMPSAT-3)   
1 38338U 12025B   26074.27998110  .00000622  00000+0  13305-3 0  9995
2 38338  98.1072  33.4208 0006562  56.7444 303.4386 14.62110990737628
EXACTVIEW-1 (ADS-1B)    
1 38709U 12039C   26074.29133466  .00000143  00000+0  80766-4 0  9993
2 38709  98.9641 189.6252 0011891  83.6298 276.6235 14.24953602709334
SPOT 6                  
1 38755U 12047A   26074.28174880  .00000201  00000+0  53102-4 0  9996
2 38755  98.2212 142.6540 0001534  92.4121 267.7254 14.58546231719366
